STARLINK-6106           
1 57154U 23090BF  26202.09460159 -.00000034  00000+0  82801-5 0  9993
2 57154  43.0007 230.1312 0001271 271.5950  88.4756 15.27575527170945
STARLINK-6108           
1 57155U 23090BG  26202.11258624  .00000123  00000+0  13980-4 0  9998
2 57155  43.0007 230.2636 0001099 269.4953  90.5772 15.27577381170945
STARLINK-6137           
1 57156U 23090BH  26203.25002315  .00860200  00000+0  55828-2 0  9994
2 57156  43.0025 217.2251 0001436 287.5000  72.0266 15.72709645  5796
METEOR-M2 3             
1 57166U 23091A   26203.29984214 -.00000017  00000+0  11195-4 0  9991
2 57166  98.6064 257.5559 0005069  74.4584 285.7154 14.24049316159517
2023-091C               
1 57168U 23091C   26203.29130751  .00008718  00000+0  33054-3 0  9994
2 57168  97.5003 265.7835 0010240 351.8991   8.2080 15.27071768169617
2023-091D               
1 57169U 23091D   26203.23774269  .00008653  00000+0  35254-3 0  9999
2 57169  97.5088 264.8576 0008954 348.5471  11.5561 15.24684927169501
2023-091E               
1 57170U 23091E   26203.23790251  .00008714  00000+0  35508-3 0  9990
2 57170  97.5094 264.9378 0007653 340.3368  19.7573 15.24685147169509
2023-091F               
1 57171U 23091F   26203.23749446  .00008769  00000+0  35710-3 0  9996
2 57171  97.5090 264.8863 0010019 359.1328   0.9890 15.24685579169501
UMKA 1 (RS40S)          
1 57172U 23091G   26203.22454504  .00005640  00000+0  25572-3 0  9994
2 57172  97.5028 261.7914 0012326   5.5532 354.5837 15.21173875169336
2023-091H               
1 57173U 23091H   26203.19555919  .00012518  00000+0  44214-3 0  9999
2 57173  97.5027 266.6843 0008836   0.5260 359.5988 15.29316795169650
2023-091J               
1 57174U 23091J   26203.28226191  .00004088  00000+0  22738-3 0  9997
2 57174  97.5036 255.8790 0013843  33.8290 326.3822 15.14146601168949
CUBEBEL 2 (EU11S)       
1 57175U 23091K   26203.24869331  .00013806  00000+0  47809-3 0  9997
2 57175  97.5029 266.7948 0008772   1.6377 358.4890 15.29939877169664
SITRO-AIS 5 (KATYS)     
1 57176U 23091L   26203.25962370  .00012909  00000+0  44394-3 0  9995
2 57176  97.5039 267.5071 0009941 346.4977  13.5996 15.30172036169706
ZORKIY-2M 1             
1 57177U 23091M   26203.27412441  .00006205  00000+0  27989-3 0  9990
2 57177  97.5069 262.1337 0012670   2.0301 358.0984 15.21309198169339
CUBESX-HSE 3 (RS42S)    
1 57178U 23091N   26203.25686213  .00014071  00000+0  45707-3 0  9997
2 57178  97.5070 269.3038 0009003 335.0192  25.0612 15.32004264169799
2023-091P               
1 57179U 23091P   26203.25229676  .00003969  00000+0  20532-3 0  9997
2 57179  97.5072 258.8971 0014708  10.6397 349.5144 15.16734065169102
MONITOR-3 (RS58S)       
1 57180U 23091Q   26203.29520309  .00010455  00000+0  37942-3 0  9991
2 57180  97.5062 267.0109 0010256 343.7140  16.3769 15.28465948169654
2023-091R               
1 57181U 23091R   26203.24208210  .00002694  00000+0  14881-3 0  9994
2 57181  97.5045 256.7273 0015401  22.8795 337.3120 15.14683137168991
MONITOR-4 (RS57S)       
1 57182U 23091S   26203.27229566  .00010823  00000+0  39162-3 0  9997
2 57182  97.5055 266.9609 0010273 344.0585  16.0330 15.28552951169659
2023-091T               
1 57183U 23091T   26203.24562466  .00004860  00000+0  23343-3 0  9992
2 57183  97.5067 261.6608 0010602 357.6331   2.4852 15.19272886169293
MONITOR-2 (RS39S)       
1 57184U 23091U   26203.29062235  .00004586  00000+0  22091-3 0  9991
2 57184  97.5051 261.3491 0010670 359.7951   0.3277 15.19197494169288
2023-091V               
1 57185U 23091V   26203.25632028  .00021847  00000+0  53586-3 0  9993
2 57185  97.5036 274.8651 0004570 310.7059  49.3789 15.40719955170174
CSTP 1.2 (STC 1.2)      
1 57186U 23091W   26203.18375647  .00008671  00000+0  30548-3 0  9990
2 57186  97.5128 269.7983 0016740 334.0122  26.0275 15.29411590169801
SVYATOBOR 1 (RS60S)     
1 57187U 23091X   26203.25120983  .00009512  00000+0  35979-3 0  9998
2 57187  97.5068 267.2715 0008025 338.2806  21.8092 15.27142504169661
HORS 1                  
1 57188U 23091Y   26203.23413558  .00008804  00000+0  33210-3 0  9999
2 57188  97.5045 267.0123 0007507 338.5396  21.5527 15.27262781169669
VIZARD-METEO (RS38S)    
1 57189U 23091Z   26203.24857889  .00017641  00000+0  48853-3 0  9998
2 57189  97.5070 273.4594 0005195 308.7320  51.3459 15.37029018170075
POLYTECH-UNIVERSE 3 (R*)
1 57191U 23091AB  26203.24715131  .00005039  00000+0  24053-3 0  9998
2 57191  97.5027 260.8101 0015394  14.0853 346.0807 15.19410694169279
SITRO-AIS 6 (CHIRKIN)   
1 57192U 23091AC  26203.25540147  .00010501  00000+0  40407-3 0  9994
2 57192  97.5047 266.4326 0010443 351.2765   8.8291 15.26525884169637
SITRO-AIS 8 (ANOKHIN)   
1 57193U 23091AD  26203.27902119  .00014584  00000+0  45934-3 0  9993
2 57193  97.5035 269.2620 0008820 341.1495  18.9419 15.32986636169825
SITRO-AIS 7 (FARTUSHNIY)
1 57194U 23091AE  26203.26590696  .00010114  00000+0  39315-3 0  9997
2 57194  97.5043 266.2494 0010378 352.6408   7.4677 15.26197243169621
